IRIDIUM 126             
1 42809U 17039G   24119.83428326  .00000153  00000+0  47644-4 0  9993
2 42809  86.3942 319.3498 0002384  87.7263 272.4206 14.34215848358249
IRIDIUM 124             
1 42810U 17039H   24119.91244587  .00000976  00000+0  28410-3 0  9991
2 42810  86.4477 256.0132 0002104  90.7495 269.3947 14.43274609362712
IRIDIUM 128             
1 42811U 17039J   24119.89479966  .00000216  00000+0  70091-4 0  9990
2 42811  86.3995 350.8415 0002153  80.3311 279.8128 14.34218037358287
IRIDIUM 121             
1 42812U 17039K   24119.92307231  .00000088  00000+0  24269-4 0  9993
2 42812  86.3946 319.3351 0002163  87.9731 272.1713 14.34215443358131
IRIDIUM 133             
1 42955U 17061A   24119.92650485  .00000434  00000+0  14775-3 0  9993
2 42955  86.3999 350.9268 0002279  86.7015 273.4441 14.34222409343085
IRIDIUM 100             
1 42956U 17061B   24120.19923891  .00000405  00000+0  13769-3 0  9999
2 42956  86.3994 350.7498 0002262  85.3306 274.8148 14.34221301343140
IRIDIUM 122             
1 42957U 17061C   24120.16753096  .00000481  00000+0  16458-3 0  9997
2 42957  86.3994 350.7611 0002168  84.1062 276.0381 14.34218258343127
IRIDIUM 129             
1 42958U 17061D   24120.12313480  .00000065  00000+0  16096-4 0  9990
2 42958  86.3996 350.8384 0002435  84.2072 275.9401 14.34216191343133
